STARLINK-31241          
1 59045U 24038Y   26068.28492213  .00000945  00000+0  43846-4 0  9999
2 59045  43.0030  26.0795 0001613 256.1109 103.9563 15.27585159114796
HYPERFIELD-1A           
1 60562U 24149CY  26068.76488211  .00008569  00000+0  30052-3 0  9998
2 60562  97.3842 149.5066 0003865 313.7844  46.3076 15.29681349 86836
